SAUDISAT 5A             
1 43831U 18102A   26169.73646424  .00004350  00000+0  16140-3 0  9997
2 43831  97.3065 231.2877 0011112 124.3504 235.8789 15.28061258415916
SAUDISAT 5B             
1 43833U 18102C   26169.68957469  .00004105  00000+0  15126-3 0  9998
2 43833  97.3172 234.3141 0011771 126.6854 233.5470 15.28316861416027
GAOFEN-10R              
1 44622U 19066A   26169.70559112  .00000881  00000+0  11492-3 0  9990
2 44622  98.0498 123.2959 0006759 123.4165 236.7695 14.83063581362602
CARTOSAT-3              
1 44804U 19081A   26169.67217228  .00003243  00000+0  15659-3 0  9998
2 44804  97.4299 231.5160 0013332 143.2950 216.9201 15.19289997363694
GAOFEN-12 01            
1 44819U 19082A   26169.70182613  .00000299  00000+0  45661-4 0  9993
2 44819  97.8100 176.0413 0002236  68.6772 291.4679 14.80459621354318
CSG-1                   
1 44873U 19092A   26169.67160229  .00000297  00000+0  43866-4 0  9992
2 44873  97.8889 353.2525 0001470  89.3430 270.7951 14.82154276351696
NEMO-HD                 
1 46277U 20061F   26169.68457660  .00008536  00000+0  18525-3 0  9996
2 46277  97.1915 231.6225 0002198  80.0588 280.0909 15.44619288322216
SENTINEL-6A             
1 46984U 20086A   26169.64700221 -.00000063  00000+0 -90625-5 0  9990
2 46984  66.0396 132.0202 0007927 270.2203  89.7903 12.80929949260517
CAS500-1                
1 47932U 21022A   26169.70867709  .00005146  00000+0  24101-3 0  9996
2 47932  97.3896  64.9314 0003334 292.7746  67.3137 15.20147291290994
GAOFEN-12 02            
1 48079U 21026A   26169.71304682  .00000264  00000+0  41524-4 0  9995
2 48079  97.9921 167.8874 0003786 215.5438 144.5522 14.80297117281981
PLEIADES NEO 3          
1 48268U 21034A   26169.73886030  .00000551  00000+0  76659-4 0  9994
2 48268  97.8932 244.4834 0001351  86.6478 273.4889 14.81675618277886
PLEIADES NEO 4          
1 49070U 21073E   26169.70507813  .00001402  00000+0  18469-3 0  9995
2 49070  97.8935 244.4461 0001380  87.3251 272.8120 14.81680954261597
LANDSAT 9               
1 49260U 21088A   26169.15790464  .00000270  00000+0  70065-4 0  9990
2 49260  98.2281 239.3236 0001315  86.1021 274.0327 14.57097750251142
CSG-2                   
1 51444U 22008A   26169.70533635 -.00000233  00000+0 -22681-4 0  9998
2 51444  97.8882 353.2804 0001460  85.5608 274.5772 14.82155761236814
GAOFEN-12 03            
1 52912U 22069A   26169.67562677  .00000541  00000+0  78134-4 0  9994
2 52912  97.8277  57.5085 0002113 101.4870 258.6580 14.80036779214836
SWOT                    
1 54754U 22173A   26169.70315655  .00000018  00000+0  13926-4 0  9999
2 54754  77.6106  33.2638 0000263  91.9799 268.1383 14.00169783179360
GAOFEN-12 04            
1 57654U 23123A   26169.75970619  .00000762  00000+0  10705-3 0  9996
2 57654  97.9121  87.7550 0001774  82.4447 277.6967 14.80231292152866
PARS 1                  
1 59065U 24039Q   26169.73871846  .00008976  00000+0  18707-3 0  9996
2 59065  97.4826 150.7073 0011531 107.0311 253.2202 15.45750666128888
RESURS-P 4              
1 59371U 24061A   26169.69999813  .00002455  00000+0  81577-4 0  9993
2 59371  97.2754 117.5724 0002294 125.0321 235.1137 15.32138282123990
LEGION 1                
1 59625U 24081A   26169.67847112  .00002839  00000+0  14833-3 0  9995
2 59625  97.5017 247.5196 0009365  12.7589 347.3879 15.16675549117769
LEGION 2                
1 59626U 24081B   26169.64249435  .00002847  00000+0  14879-3 0  9996
2 59626  97.5018 247.5815 0010603 338.3734  21.7050 15.16653608117761
ALOS-4 (DAICHI-4)       
1 60182U 24123A   26169.71407711  .00001102  00000+0  15446-3 0  9997
2 60182  97.9247 266.8665 0001631  97.2362 262.9035 14.79470402106109
LEGION 3                
1 60452U 24146A   26169.64647095  .00003204  00000+0  17720-3 0  9997
2 60452  45.0025  22.7286 0007816 178.6524 181.4376 15.16046629102246
LEGION 4                
1 60453U 24146B   26169.32010953  .00003566  00000+0  19552-3 0  9996
2 60453  45.0012 116.3892 0013659 314.4569  45.5192 15.16038497101044
SENTINEL-2C             
1 60989U 24157A   26169.50121661  .00000084  00000+0  48881-4 0  9991
2 60989  98.5692 244.2646 0001008  82.4892 277.6406 14.30818144 93179
IONOSFERA-M 1           
1 61735U 24199A   26169.67063626  .00000029  00000+0  32634-4 0  9999
2 61735  98.7171  42.8272 0001974 108.1907 251.9486 14.22754566127916
IONOSFERA-M 2           
1 61736U 24199B   26169.63460205  .00000041  00000+0  37862-4 0  9992
2 61736  98.7170  42.7021 0000984  38.4246 321.7001 14.22757853131037
PRSC-EO1                
1 62725U 25012A   26169.70817814  .00004922  00000+0  24796-3 0  9999
2 62725  97.4222 242.1386 0004865 245.4721 114.6006 15.17624174 78421
BIOMASS                 
1 63772U 25090A   26169.46532683  .00000158  00000+0  36300-4 0  9991
2 63772  98.0739 356.7637 0001346  96.2561 263.8797 14.67536694 60877
GOSAT-GW (IBUKI GW)     
1 64694U 25141A   26169.75832380  .00000029  00000+0  13577-4 0  9999
2 64694  98.0569 107.0499 0001447  83.9787 276.1582 14.67554045 52072
IONOSFERA-M 3           
1 64876U 25155A   26169.58320654  .00000034  00000+0  34921-4 0  9995
2 64876  98.6025 131.4531 0001089 154.1895 205.9337 14.21486651 46605
