OBJECT_NAME,OBJECT_ID,EPOCH,MEAN_MOTION,ECCENTRICITY,INCLINATION,RA_OF_ASC_NODE,ARG_OF_PERICENTER,MEAN_ANOMALY,EPHEMERIS_TYPE,CLASSIFICATION_TYPE,NORAD_CAT_ID,ELEMENT_SET_NO,REV_AT_EPOCH,BSTAR,MEAN_MOTION_DOT,MEAN_MOTION_DDOT
SAUDISAT 5A,2018-102A,2026-06-18T17:40:30.510336,15.28061258,.0011112,97.3065,231.2877,124.3504,235.8789,0,U,43831,999,41591,.1614E-3,.435E-4,0
SAUDISAT 5B,2018-102C,2026-06-18T16:32:59.253216,15.28316861,.0011771,97.3172,234.3141,126.6854,233.5470,0,U,43833,999,41602,.15126E-3,.4105E-4,0
GAOFEN-10R,2019-066A,2026-06-18T16:56:03.072768,14.83063581,.0006759,98.0498,123.2959,123.4165,236.7695,0,U,44622,999,36260,.11492E-3,.881E-5,0
CARTOSAT-3,2019-081A,2026-06-18T16:07:55.684992,15.19289997,.0013332,97.4299,231.5160,143.2950,216.9201,0,U,44804,999,36369,.15659E-3,.3243E-4,0
GAOFEN-12 01,2019-082A,2026-06-18T16:50:37.777632,14.80459621,.0002236,97.8100,176.0413,68.6772,291.4679,0,U,44819,999,35431,.45661E-4,.299E-5,0
CSG-1,2019-092A,2026-06-18T16:07:06.437856,14.82154276,.000147,97.8889,353.2525,89.3430,270.7951,0,U,44873,999,35169,.43866E-4,.297E-5,0
NEMO-HD,2020-061F,2026-06-18T16:25:47.418240,15.44619288,.0002198,97.1915,231.6225,80.0588,280.0909,0,U,46277,999,32221,.18525E-3,.8536E-4,0
SENTINEL-6A,2020-086A,2026-06-18T15:31:40.990944,12.80929949,.0007927,66.0396,132.0202,270.2203,89.7903,0,U,46984,999,26051,-.90625E-5,-.63E-6,0
CAS500-1,2021-022A,2026-06-18T17:00:29.700576,15.20147291,.0003334,97.3896,64.9314,292.7746,67.3137,0,U,47932,999,29099,.24101E-3,.5146E-4,0
GAOFEN-12 02,2021-026A,2026-06-18T17:06:47.245248,14.80297117,.0003786,97.9921,167.8874,215.5438,144.5522,0,U,48079,999,28198,.41524E-4,.264E-5,0
PLEIADES NEO 3,2021-034A,2026-06-18T17:43:57.529920,14.81675618,.0001351,97.8932,244.4834,86.6478,273.4889,0,U,48268,999,27788,.76659E-4,.551E-5,0
PLEIADES NEO 4,2021-073E,2026-06-18T16:55:18.750432,14.81680954,.000138,97.8935,244.4461,87.3251,272.8120,0,U,49070,999,26159,.18469E-3,.1402E-4,0
LANDSAT 9,2021-088A,2026-06-18T03:47:22.960896,14.57097750,.00013152,98.2281,239.3236,86.1021,274.0327,0,U,49260,999,25114,.7006462E-4,.27E-5,0
CSG-2,2022-008A,2026-06-18T16:55:41.060640,14.82155761,.000146,97.8882,353.2804,85.5608,274.5772,0,U,51444,999,23681,-.22681E-4,-.233E-5,0
GAOFEN-12 03,2022-069A,2026-06-18T16:12:54.152928,14.80036779,.0002113,97.8277,57.5085,101.4870,258.6580,0,U,52912,999,21483,.78134E-4,.541E-5,0
SWOT,2022-173A,2026-06-18T16:52:32.725920,14.00169783,.0000263,77.6106,33.2638,91.9799,268.1383,0,U,54754,999,17936,.13926E-4,.18E-6,0
GAOFEN-12 04,2023-123A,2026-06-18T18:13:58.614816,14.80231292,.0001774,97.9121,87.7550,82.4447,277.6967,0,U,57654,999,15286,.10705E-3,.762E-5,0
PARS 1,2024-039Q,2026-06-18T17:43:45.274944,15.45750666,.0011531,97.4826,150.7073,107.0311,253.2202,0,U,59065,999,12888,.18707E-3,.8976E-4,0
RESURS-P 4,2024-061A,2026-06-18T16:47:59.838432,15.32138282,.0002294,97.2754,117.5724,125.0321,235.1137,0,U,59371,999,12399,.81577E-4,.2455E-4,0
LEGION 1,2024-081A,2026-06-18T16:16:59.904768,15.16675549,.0009365,97.5017,247.5196,12.7589,347.3879,0,U,59625,999,11776,.14833E-3,.2839E-4,0
LEGION 2,2024-081B,2026-06-18T15:25:11.511840,15.16653608,.0010603,97.5018,247.5815,338.3734,21.7050,0,U,59626,999,11776,.14879E-3,.2847E-4,0
ALOS-4 (DAICHI-4),2024-123A,2026-06-18T17:08:16.262304,14.79470402,.0001631,97.9247,266.8665,97.2362,262.9035,0,U,60182,999,10610,.15446E-3,.1102E-4,0
LEGION 3,2024-146A,2026-06-18T15:30:55.090080,15.16046629,.0007816,45.0025,22.7286,178.6524,181.4376,0,U,60452,999,10224,.1772E-3,.3204E-4,0
LEGION 4,2024-146B,2026-06-18T07:40:57.463392,15.16038497,.0013659,45.0012,116.3892,314.4569,45.5192,0,U,60453,999,10104,.19552E-3,.3566E-4,0
SENTINEL-2C,2024-157A,2026-06-18T12:01:45.115104,14.30818144,.0001008,98.5692,244.2646,82.4892,277.6406,0,U,60989,999,9317,.48881E-4,.84E-6,0
IONOSFERA-M 1,2024-199A,2026-06-18T16:05:42.972864,14.22754566,.0001974,98.7171,42.8272,108.1907,251.9486,0,U,61735,999,12791,.32634E-4,.29E-6,0
IONOSFERA-M 2,2024-199B,2026-06-18T15:13:49.617120,14.22757853,.0000984,98.7170,42.7021,38.4246,321.7001,0,U,61736,999,13103,.37862E-4,.41E-6,0
PRSC-EO1,2025-012A,2026-06-18T16:59:46.591296,15.17624174,.0004865,97.4222,242.1386,245.4721,114.6006,0,U,62725,999,7842,.24796E-3,.4922E-4,0
BIOMASS,2025-090A,2026-06-18T11:10:04.238112,14.67536694,.0001346,98.0739,356.7637,96.2561,263.8797,0,U,63772,999,6087,.363E-4,.158E-5,0
GOSAT-GW (IBUKI GW),2025-141A,2026-06-18T18:11:59.176320,14.67554045,.0001447,98.0569,107.0499,83.9787,276.1582,0,U,64694,999,5207,.13577E-4,.29E-6,0
IONOSFERA-M 3,2025-155A,2026-06-18T13:59:49.045056,14.21486651,.00010896,98.6025,131.4531,154.1895,205.9337,0,U,64876,999,4660,.34921246E-4,.34E-6,0
